SL-14 R/B               
1 21423U 91042B   26026.14842694  .00000665  00000+0  81126-4 0  9990
2 21423  82.4912 260.0839 0017731  25.5913 334.6174 14.81788256846772
ERS-1                   
1 21574U 91050A   26026.50373839  .00000582  00000+0  20094-3 0  9990
2 21574  98.7898  43.6780 0031418 329.1557  30.7783 14.39410602809664
ARIANE 40 R/B           
1 21610U 91050F   26026.16952859  .00000575  00000+0  18480-3 0  9996
2 21610  98.2101  79.9836 0003002 180.6329 179.4858 14.42858724812861
INTERCOSMOS 25          
1 21819U 91086A   26026.30228153  .00001999  00000+0  39426-3 0  9999
2 21819  82.6090 335.6232 1486215 208.2740 142.9281 12.11882416491557
SL-8 R/B                
1 21876U 92008B   26026.49602808  .00000093  00000+0  80447-4 0  9994
2 21876  82.9285 299.1632 0033342 252.1645 281.9126 13.75968384703612
SL-8 R/B                
1 21938U 92020B   26026.50322082  .00000196  00000+0  18712-3 0  9991
2 21938  82.9308 185.0760 0030000  57.1224   3.2566 13.75541934695336
USA 81                  
1 21949U 92023A   26026.46449825  .00000370  00000+0  12975-3 0  9995
2 21949  85.0114 155.7859 0002211 113.4177 246.7248 14.32349969 88746
COSMOS 2219             
1 22219U 92076A   26026.50230050 -.00000195  00000+0 -77379-4 0  9994
2 22219  71.0610 106.2646 0020794 265.6444  94.2303 14.14080516712417
SL-16 R/B               
1 22220U 92076B   26026.13404473 -.00000091  00000+0 -21413-4 0  9990
2 22220  70.9995 278.0179 0012320 170.2979 297.8614 14.16850367715805
COSMOS 2221             
1 22236U 92080A   26026.30126714  .00003660  00000+0  32355-3 0  9999
2 22236  82.5063 319.6705 0014020 342.2439  17.8291 14.96006128774458
SL-16 R/B               
1 22285U 92093B   26026.47867288 -.00000007  00000+0  20769-4 0  9993
2 22285  71.0220  92.8819 0004568 339.4115  20.6824 14.15443614707187
COSMOS 2228             
1 22286U 92094A   26026.47898009  .00003075  00000+0  26416-3 0  9991
2 22286  82.5175 277.7264 0019630  84.0688 276.2771 14.96985789769749
